[{"OBJECT_NAME":"STARLINK-36156","OBJECT_ID":"2025-293D","EPOCH":"2026-03-09T11:40:19.435584","MEAN_MOTION":14.9835049,"ECCENTRICITY":0.00040142,"INCLINATION":70,"RA_OF_ASC_NODE":95.1201,"ARG_OF_PERICENTER":266.14,"MEAN_ANOMALY":93.93,"EPHEMERIS_TYPE":0,"CLASSIFICATION_TYPE":"U","NORAD_CAT_ID":67006,"ELEMENT_SET_NO":999,"REV_AT_EPOCH":1485,"BSTAR":0.00030061031,"MEAN_MOTION_DOT":3.498e-5,"MEAN_MOTION_DDOT":0},{"OBJECT_NAME":"PEGASUS DEB","OBJECT_ID":"1994-029AFH","EPOCH":"2026-03-05T17:45:37.026432","MEAN_MOTION":14.51722311,"ECCENTRICITY":0.02342531,"INCLINATION":81.9261,"RA_OF_ASC_NODE":220.9081,"ARG_OF_PERICENTER":300.5844,"MEAN_ANOMALY":57.2427,"EPHEMERIS_TYPE":0,"CLASSIFICATION_TYPE":"U","NORAD_CAT_ID":39322,"ELEMENT_SET_NO":999,"REV_AT_EPOCH":66781,"BSTAR":0.00070242434,"MEAN_MOTION_DOT":4.058e-5,"MEAN_MOTION_DDOT":0}]
